STARLINK-2147           
1 47736U 21017Q   25280.97851617  .00007574  00000+0  52657-3 0  9999
2 47736  53.0541 167.1666 0001206  90.4761 269.6366 15.06415811254906
STARLINK-2150           
1 47739U 21017T   25281.04070566 -.00000534  00000+0 -16969-4 0  9995
2 47739  53.0545 191.8882 0001432  89.3017 270.8136 15.06394728254563
STARLINK-2156           
1 47742U 21017W   25280.98220610  .00009047  00000+0  62503-3 0  9998
2 47742  53.0509 167.1507 0001379  84.7458 275.3689 15.06424669254904
STARLINK-2159           
1 47745U 21017Z   25281.01446158  .00017742  00000+0  12064-2 0  9990
2 47745  53.0549 177.0073 0001214  80.2111 279.9015 15.06417029254718
STARLINK-2160           
1 47746U 21017AA  25281.00708487  .00012982  00000+0  88833-3 0  9995
2 47746  53.0540 177.0390 0001486  96.2658 263.8501 15.06419505254708
STARLINK-2161           
1 47747U 21017AB  25281.00432715  .00015550  00000+0  10599-2 0  9991
2 47747  53.0530 167.0514 0001453  89.5241 270.5914 15.06422474254883
STARLINK-2162           
1 47748U 21017AC  25281.06330296  .00011950  00000+0  81954-3 0  9993
2 47748  53.0542 166.7844 0001323  81.9285 278.1855 15.06411988254863
STARLINK-2163           
1 47749U 21017AD  25281.01170185  .00014962  00000+0  10211-2 0  9991
2 47749  53.0531 167.0180 0001383  86.9713 273.1434 15.06404003254853
STARLINK-2164           
1 47750U 21017AE  25280.98957073  .00001435  00000+0  11517-3 0  9999
2 47750  53.0517 167.1137 0001359  87.3450 272.7695 15.06405243254859
STARLINK-2169           
1 47752U 21017AG  25280.98728148  .00017774  00000+0  12084-2 0  9992
2 47752  53.0540 172.1267 0001478  83.8009 276.3148 15.06423766254831
STARLINK-2170           
1 47753U 21017AH  25280.43207505 -.00004767  00000+0 -30136-3 0  9991
2 47753  53.0526 179.6217 0001330  92.2859 267.8283 15.06395369254671
STARLINK-2171           
1 47754U 21017AJ  25280.99972413  .00010267  00000+0  70693-3 0  9992
2 47754  53.0533 177.0735 0000899  61.5768 298.5312 15.06411305254723
STARLINK-2178           
1 47760U 21017AQ  25281.01352815  .00025427  00000+0  17191-2 0  9998
2 47760  53.0533 187.0102 0001577  75.7693 284.3471 15.06415192254601
STARLINK-2180           
1 47762U 21017AS  25281.07021128  .00022884  00000+0  15494-2 0  9994
2 47762  53.0535 191.7639 0001325  95.2003 264.9137 15.06419641254533
STARLINK-2185           
1 47767U 21017AX  25281.03286944  .00010030  00000+0  69066-3 0  9999
2 47767  53.0538 176.9228 0001480  91.0635 269.0524 15.06432553254776
STARLINK-2193           
1 47770U 21017BA  25281.02411725  .00016566  00000+0  11268-2 0  9999
2 47770  53.0555 171.9624 0001445  77.3697 282.7454 15.06454440254818
