[{"OBJECT_NAME":"STARLINK-2147","OBJECT_ID":"2021-017Q","EPOCH":"2025-10-07T23:29:03.797088","MEAN_MOTION":15.06415811,"ECCENTRICITY":0.0001206,"INCLINATION":53.0541,"RA_OF_ASC_NODE":167.1666,"ARG_OF_PERICENTER":90.4761,"MEAN_ANOMALY":269.6366,"EPHEMERIS_TYPE":0,"CLASSIFICATION_TYPE":"U","NORAD_CAT_ID":47736,"ELEMENT_SET_NO":999,"REV_AT_EPOCH":25490,"BSTAR":0.00052657,"MEAN_MOTION_DOT":7.574e-5,"MEAN_MOTION_DDOT":0},{"OBJECT_NAME":"STARLINK-2150","OBJECT_ID":"2021-017T","EPOCH":"2025-10-08T00:58:36.969024","MEAN_MOTION":15.06394728,"ECCENTRICITY":0.00014323,"INCLINATION":53.0545,"RA_OF_ASC_NODE":191.8882,"ARG_OF_PERICENTER":89.3017,"MEAN_ANOMALY":270.8136,"EPHEMERIS_TYPE":0,"CLASSIFICATION_TYPE":"U","NORAD_CAT_ID":47739,"ELEMENT_SET_NO":999,"REV_AT_EPOCH":25456,"BSTAR":-1.6968883e-5,"MEAN_MOTION_DOT":-5.34e-6,"MEAN_MOTION_DDOT":0},{"OBJECT_NAME":"STARLINK-2156","OBJECT_ID":"2021-017W","EPOCH":"2025-10-07T23:34:22.607040","MEAN_MOTION":15.06424669,"ECCENTRICITY":0.0001379,"INCLINATION":53.0509,"RA_OF_ASC_NODE":167.1507,"ARG_OF_PERICENTER":84.7458,"MEAN_ANOMALY":275.3689,"EPHEMERIS_TYPE":0,"CLASSIFICATION_TYPE":"U","NORAD_CAT_ID":47742,"ELEMENT_SET_NO":999,"REV_AT_EPOCH":25490,"BSTAR":0.00062503,"MEAN_MOTION_DOT":9.047e-5,"MEAN_MOTION_DDOT":0},{"OBJECT_NAME":"STARLINK-2159","OBJECT_ID":"2021-017Z","EPOCH":"2025-10-08T00:20:49.480512","MEAN_MOTION":15.06417029,"ECCENTRICITY":0.00012147,"INCLINATION":53.0549,"RA_OF_ASC_NODE":177.0073,"ARG_OF_PERICENTER":80.2111,"MEAN_ANOMALY":279.9015,"EPHEMERIS_TYPE":0,"CLASSIFICATION_TYPE":"U","NORAD_CAT_ID":47745,"ELEMENT_SET_NO":999,"REV_AT_EPOCH":25471,"BSTAR":0.00120643,"MEAN_MOTION_DOT":0.00017742,"MEAN_MOTION_DDOT":0},{"OBJECT_NAME":"STARLINK-2160","OBJECT_ID":"2021-017AA","EPOCH":"2025-10-08T00:10:12.132768","MEAN_MOTION":15.06419505,"ECCENTRICITY":0.00014866,"INCLINATION":53.054,"RA_OF_ASC_NODE":177.039,"ARG_OF_PERICENTER":96.2658,"MEAN_ANOMALY":263.8501,"EPHEMERIS_TYPE":0,"CLASSIFICATION_TYPE":"U","NORAD_CAT_ID":47746,"ELEMENT_SET_NO":999,"REV_AT_EPOCH":25470,"BSTAR":0.00088833204,"MEAN_MOTION_DOT":0.00012982,"MEAN_MOTION_DDOT":0},{"OBJECT_NAME":"STARLINK-2161","OBJECT_ID":"2021-017AB","EPOCH":"2025-10-08T00:06:13.865760","MEAN_MOTION":15.06422474,"ECCENTRICITY":0.00014539,"INCLINATION":53.053,"RA_OF_ASC_NODE":167.0514,"ARG_OF_PERICENTER":89.5241,"MEAN_ANOMALY":270.5914,"EPHEMERIS_TYPE":0,"CLASSIFICATION_TYPE":"U","NORAD_CAT_ID":47747,"ELEMENT_SET_NO":999,"REV_AT_EPOCH":25488,"BSTAR":0.0010598673,"MEAN_MOTION_DOT":0.0001555,"MEAN_MOTION_DDOT":0},{"OBJECT_NAME":"STARLINK-2162","OBJECT_ID":"2021-017AC","EPOCH":"2025-10-08T01:31:09.375744","MEAN_MOTION":15.06411988,"ECCENTRICITY":0.00013237,"INCLINATION":53.0542,"RA_OF_ASC_NODE":166.7844,"ARG_OF_PERICENTER":81.9285,"MEAN_ANOMALY":278.1855,"EPHEMERIS_TYPE":0,"CLASSIFICATION_TYPE":"U","NORAD_CAT_ID":47748,"ELEMENT_SET_NO":999,"REV_AT_EPOCH":25486,"BSTAR":0.00081953898,"MEAN_MOTION_DOT":0.0001195,"MEAN_MOTION_DDOT":0},{"OBJECT_NAME":"STARLINK-2163","OBJECT_ID":"2021-017AD","EPOCH":"2025-10-08T00:16:51.039840","MEAN_MOTION":15.06404003,"ECCENTRICITY":0.00013831,"INCLINATION":53.0531,"RA_OF_ASC_NODE":167.018,"ARG_OF_PERICENTER":86.9713,"MEAN_ANOMALY":273.1434,"EPHEMERIS_TYPE":0,"CLASSIFICATION_TYPE":"U","NORAD_CAT_ID":47749,"ELEMENT_SET_NO":999,"REV_AT_EPOCH":25485,"BSTAR":0.0010211182,"MEAN_MOTION_DOT":0.00014962,"MEAN_MOTION_DDOT":0},{"OBJECT_NAME":"STARLINK-2164","OBJECT_ID":"2021-017AE","EPOCH":"2025-10-07T23:44:58.911072","MEAN_MOTION":15.06405243,"ECCENTRICITY":0.0001359,"INCLINATION":53.0517,"RA_OF_ASC_NODE":167.1137,"ARG_OF_PERICENTER":87.345,"MEAN_ANOMALY":272.7695,"EPHEMERIS_TYPE":0,"CLASSIFICATION_TYPE":"U","NORAD_CAT_ID":47750,"ELEMENT_SET_NO":999,"REV_AT_EPOCH":25485,"BSTAR":0.00011517,"MEAN_MOTION_DOT":1.435e-5,"MEAN_MOTION_DDOT":0},{"OBJECT_NAME":"STARLINK-2169","OBJECT_ID":"2021-017AG","EPOCH":"2025-10-07T23:41:41.119872","MEAN_MOTION":15.06423766,"ECCENTRICITY":0.0001478,"INCLINATION":53.054,"RA_OF_ASC_NODE":172.1267,"ARG_OF_PERICENTER":83.8009,"MEAN_ANOMALY":276.3148,"EPHEMERIS_TYPE":0,"CLASSIFICATION_TYPE":"U","NORAD_CAT_ID":47752,"ELEMENT_SET_NO":999,"REV_AT_EPOCH":25483,"BSTAR":0.0012084,"MEAN_MOTION_DOT":0.00017774,"MEAN_MOTION_DDOT":0},{"OBJECT_NAME":"STARLINK-2170","OBJECT_ID":"2021-017AH","EPOCH":"2025-10-07T10:22:11.284320","MEAN_MOTION":15.06395369,"ECCENTRICITY":0.000133,"INCLINATION":53.0526,"RA_OF_ASC_NODE":179.6217,"ARG_OF_PERICENTER":92.2859,"MEAN_ANOMALY":267.8283,"EPHEMERIS_TYPE":0,"CLASSIFICATION_TYPE":"U","NORAD_CAT_ID":47753,"ELEMENT_SET_NO":999,"REV_AT_EPOCH":25467,"BSTAR":-0.00030135838,"MEAN_MOTION_DOT":-4.767e-5,"MEAN_MOTION_DDOT":0},{"OBJECT_NAME":"STARLINK-2171","OBJECT_ID":"2021-017AJ","EPOCH":"2025-10-07T23:59:36.164832","MEAN_MOTION":15.06411305,"ECCENTRICITY":8.998e-5,"INCLINATION":53.0533,"RA_OF_ASC_NODE":177.0735,"ARG_OF_PERICENTER":61.5768,"MEAN_ANOMALY":298.5312,"EPHEMERIS_TYPE":0,"CLASSIFICATION_TYPE":"U","NORAD_CAT_ID":47754,"ELEMENT_SET_NO":999,"REV_AT_EPOCH":25472,"BSTAR":0.00070692613,"MEAN_MOTION_DOT":0.00010267,"MEAN_MOTION_DDOT":0},{"OBJECT_NAME":"STARLINK-2178","OBJECT_ID":"2021-017AQ","EPOCH":"2025-10-08T00:19:28.832160","MEAN_MOTION":15.06415192,"ECCENTRICITY":0.00015774,"INCLINATION":53.0533,"RA_OF_ASC_NODE":187.0102,"ARG_OF_PERICENTER":75.7693,"MEAN_ANOMALY":284.3471,"EPHEMERIS_TYPE":0,"CLASSIFICATION_TYPE":"U","NORAD_CAT_ID":47760,"ELEMENT_SET_NO":999,"REV_AT_EPOCH":25460,"BSTAR":0.001719052,"MEAN_MOTION_DOT":0.00025427,"MEAN_MOTION_DDOT":0},{"OBJECT_NAME":"STARLINK-2180","OBJECT_ID":"2021-017AS","EPOCH":"2025-10-08T01:41:06.254592","MEAN_MOTION":15.06419641,"ECCENTRICITY":0.00013253,"INCLINATION":53.0535,"RA_OF_ASC_NODE":191.7639,"ARG_OF_PERICENTER":95.2003,"MEAN_ANOMALY":264.9137,"EPHEMERIS_TYPE":0,"CLASSIFICATION_TYPE":"U","NORAD_CAT_ID":47762,"ELEMENT_SET_NO":999,"REV_AT_EPOCH":25453,"BSTAR":0.0015493846,"MEAN_MOTION_DOT":0.00022884,"MEAN_MOTION_DDOT":0},{"OBJECT_NAME":"STARLINK-2185","OBJECT_ID":"2021-017AX","EPOCH":"2025-10-08T00:47:19.919616","MEAN_MOTION":15.06432553,"ECCENTRICITY":0.00014807,"INCLINATION":53.0538,"RA_OF_ASC_NODE":176.9228,"ARG_OF_PERICENTER":91.0635,"MEAN_ANOMALY":269.0524,"EPHEMERIS_TYPE":0,"CLASSIFICATION_TYPE":"U","NORAD_CAT_ID":47767,"ELEMENT_SET_NO":999,"REV_AT_EPOCH":25477,"BSTAR":0.00069065794,"MEAN_MOTION_DOT":0.0001003,"MEAN_MOTION_DDOT":0},{"OBJECT_NAME":"STARLINK-2193","OBJECT_ID":"2021-017BA","EPOCH":"2025-10-08T00:34:43.730400","MEAN_MOTION":15.0645444,"ECCENTRICITY":0.00014452,"INCLINATION":53.0555,"RA_OF_ASC_NODE":171.9624,"ARG_OF_PERICENTER":77.3697,"MEAN_ANOMALY":282.7454,"EPHEMERIS_TYPE":0,"CLASSIFICATION_TYPE":"U","NORAD_CAT_ID":47770,"ELEMENT_SET_NO":999,"REV_AT_EPOCH":25481,"BSTAR":0.0011267687,"MEAN_MOTION_DOT":0.00016566,"MEAN_MOTION_DDOT":0}]
